COMMENT,ORIGINATOR,NORAD_CAT_ID,OBJECT_NAME,OBJECT_TYPE,CLASSIFICATION_TYPE,INTLDES,EPOCH,EPOCH_MICROSECONDS,MEAN_MOTION,ECCENTRICITY,INCLINATION,RA_OF_ASC_NODE,ARG_OF_PERICENTER,MEAN_ANOMALY,EPHEMERIS_TYPE,ELEMENT_SET_NO,REV_AT_EPOCH,BSTAR,MEAN_MOTION_DOT,MEAN_MOTION_DDOT,FILE,TLE_LINE0,TLE_LINE1,TLE_LINE2,OBJECT_ID,OBJECT_NUMBER,SEMIMAJOR_AXIS,PERIOD,APOGEE,PERIGEE,DECAYED
"GENERATED VIA SPACETRACK.ORG API","18 SPCS","48899","SPACEBEE-110","PAYLOAD","U","21059W","2023-05-28 08:16:57","580896","15.31628732","0.0005974","97.5948","285.5428","339.1083","20.9913","0","999","10639","0.00085878","0.00026222","0","3919200","0 SPACEBEE-110","1 48899U 21059W   23148.34511089  .00026222  00000-0  85878-3 0  9997","2 48899  97.5948 285.5428 0005974 339.1083  20.9913 15.31628732106399","2021-059W","48899","6849.089","94.018","475.046","466.863","0"
"GENERATED VIA SPACETRACK.ORG API","18 SPCS","48899","SPACEBEE-110","PAYLOAD","U","21059W","2023-05-28 20:49:34","511520","15.31660153","0.0005909","97.5947","286.0782","336.7533","23.3439","0","999","10647","0.00095112","0.00029089","0","3919546","0 SPACEBEE-110","1 48899U 21059W   23148.86776055  .00029089  00000-0  95112-3 0  9996","2 48899  97.5947 286.0782 0005909 336.7533  23.3439 15.31660153106470","2021-059W","48899","6848.996","94.016","474.908","466.814","0"
"GENERATED VIA SPACETRACK.ORG API","18 SPCS","48899","SPACEBEE-110","PAYLOAD","U","21059W","2023-05-29 07:48:06","206112","15.31681645","0.0005919","97.5947","286.547","335.2558","24.8398","0","999","10654","0.00083871","0.00025647","0","3920065","0 SPACEBEE-110","1 48899U 21059W   23149.32507183  .00025647  00000-0  83871-3 0  9997","2 48899  97.5947 286.5470 0005919 335.2558  24.8398 15.31681645106548","2021-059W","48899","6848.932","94.014","474.851","466.743","0"
"GENERATED VIA SPACETRACK.ORG API","18 SPCS","48899","SPACEBEE-110","PAYLOAD","U","21059W","2023-05-29 20:20:41","672256","15.31707965","0.0005861","97.5947","287.0823","333.0029","27.0906","0","999","10662","0.00081174","0.00024838","0","3920354","0 SPACEBEE-110","1 48899U 21059W   23149.84770454  .00024838  00000-0  81174-3 0  9992","2 48899  97.5947 287.0823 0005861 333.0029  27.0906 15.31707965106624","2021-059W","48899","6848.853","94.013","474.732","466.704","0"
"GENERATED VIA SPACETRACK.ORG API","18 SPCS","48899","SPACEBEE-110","PAYLOAD","U","21059W","2023-05-30 02:36:59","125824","15.31720412","0.0005862","97.5947","287.3503","332.1735","27.9191","0","999","10666","0.00085992","0.00026332","0","3920588","0 SPACEBEE-110","1 48899U 21059W   23150.10901766  .00026332  00000-0  85992-3 0  9998","2 48899  97.5947 287.3503 0005862 332.1735  27.9191 15.31720412106668","2021-059W","48899","6848.816","94.012","474.696","466.666","0"
"GENERATED VIA SPACETRACK.ORG API","18 SPCS","48899","SPACEBEE-110","PAYLOAD","U","21059W","2023-05-30 08:53:16","340928","15.31733602","0.0005912","97.5945","287.6178","331.0284","29.0628","0","999","10670","0.00078399","0.00024002","0","3920920","0 SPACEBEE-110","1 48899U 21059W   23150.37032802  .00024002  00000-0  78399-3 0  9998","2 48899  97.5945 287.6178 0005912 331.0284  29.0628 15.31733602106708","2021-059W","48899","6848.777","94.011","474.691","466.593","0"
"GENERATED VIA SPACETRACK.ORG API","18 SPCS","48899","SPACEBEE-110","PAYLOAD","U","21059W","2023-05-30 21:25:50","245824","15.31761411","0.0005841","97.5946","288.1535","328.3633","31.7257","0","999","10678","0.00082752","0.00025366","0","3921192","0 SPACEBEE-110","1 48899U 21059W   23150.89294266  .00025366  00000-0  82752-3 0  9991","2 48899  97.5946 288.1535 0005841 328.3633  31.7257 15.31761411106785","2021-059W","48899","6848.694","94.009","474.559","466.559","0"
"GENERATED VIA SPACETRACK.ORG API","18 SPCS","48899","SPACEBEE-110","PAYLOAD","U","21059W","2023-05-31 08:24:19","205856","15.31787282","0.000587","97.5946","288.6224","326.5392","33.5477","0","999","10685","0.00090259","0.00027705","0","3921744","0 SPACEBEE-110","1 48899U 21059W   23151.35022229  .00027705  00000-0  90259-3 0  9991","2 48899  97.5946 288.6224 0005870 326.5392  33.5477 15.31787282106855","2021-059W","48899","6848.617","94.008","474.502","466.462","0"
"GENERATED VIA SPACETRACK.ORG API","18 SPCS","48899","SPACEBEE-110","PAYLOAD","U","21059W","2023-05-31 08:24:19","205856","15.31787282","0.000587","97.5946","288.6224","326.5392","33.5477","0","999","10685","0.00090259","0.00027705","0","3921767","0 SPACEBEE-110","1 48899U 21059W   23151.35022229  .00027705  00000-0  90259-3 0  9991","2 48899  97.5946 288.6224 0005870 326.5392  33.5477 15.31787282106855","2021-059W","48899","6848.617","94.008","474.502","466.462","0"
"GENERATED VIA SPACETRACK.ORG API","18 SPCS","48899","SPACEBEE-110","PAYLOAD","U","21059W","2023-05-31 22:30:55","410912","15.31823421","0.0005848","97.595","289.2248","323.8311","36.2534","0","999","10694","0.00094605","0.00029081","0","3922037","0 SPACEBEE-110","1 48899U 21059W   23151.93814133  .00029081  00000-0  94605-3 0  9996","2 48899  97.5950 289.2248 0005848 323.8311  36.2534 15.31823421106949","2021-059W","48899","6848.509","94.006","474.379","466.369","0"
"GENERATED VIA SPACETRACK.ORG API","18 SPCS","48899","SPACEBEE-110","PAYLOAD","U","21059W","2023-06-01 07:55:18","925824","15.31848202","0.0005873","97.5952","289.6267","322.4359","37.6471","0","999","10700","0.0010256","0.00031568","0","3922365","0 SPACEBEE-110","1 48899U 21059W   23152.33008016  .00031568  00000-0  10256-2 0  9998","2 48899  97.5952 289.6267 0005873 322.4359  37.6471 15.31848202107008","2021-059W","48899","6848.435","94.004","474.322","466.278","0"
"GENERATED VIA SPACETRACK.ORG API","18 SPCS","48899","SPACEBEE-110","PAYLOAD","U","21059W","2023-06-01 07:55:18","925824","15.31848202","0.0005873","97.5952","289.6267","322.4359","37.6471","0","999","10700","0.0010256","0.00031568","0","3922637","0 SPACEBEE-110","1 48899U 21059W   23152.33008016  .00031568  00000-0  10256-2 0  9998","2 48899  97.5952 289.6267 0005873 322.4359  37.6471 15.31848202107008","2021-059W","48899","6848.435","94.004","474.322","466.278","0"
"GENERATED VIA SPACETRACK.ORG API","18 SPCS","48899","SPACEBEE-110","PAYLOAD","U","21059W","2023-06-02 09:00:18","839520","15.31910899","0.0005863","97.5954","290.6975","318.5083","41.5712","0","999","10716","0.00085415","0.0002631","0","3923268","0 SPACEBEE-110","1 48899U 21059W   23153.37521805  .00026310  00000-0  85415-3 0  9998","2 48899  97.5954 290.6975 0005863 318.5083  41.5712 15.31910899107168","2021-059W","48899","6848.248","94.000","474.129","466.098","0"
"GENERATED VIA SPACETRACK.ORG API","18 SPCS","48899","SPACEBEE-110","PAYLOAD","U","21059W","2023-06-02 09:00:18","839520","15.31910899","0.0005863","97.5954","290.6975","318.5083","41.5712","0","999","10716","0.00085415","0.0002631","0","3923342","0 SPACEBEE-110","1 48899U 21059W   23153.37521805  .00026310  00000-0  85415-3 0  9998","2 48899  97.5954 290.6975 0005863 318.5083  41.5712 15.31910899107168","2021-059W","48899","6848.248","94.000","474.129","466.098","0"
"GENERATED VIA SPACETRACK.ORG API","18 SPCS","48899","SPACEBEE-110","PAYLOAD","U","21059W","2023-06-03 08:31:11","891136","15.31964433","0.0005853","97.5958","291.7016","314.468","45.6082","0","999","10731","0.00089074","0.00027491","0","3924076","0 SPACEBEE-110","1 48899U 21059W   23154.35499874  .00027491  00000-0  89074-3 0  9993","2 48899  97.5958 291.7016 0005853 314.4680  45.6082 15.31964433107312","2021-059W","48899","6848.089","93.997","473.962","465.946","0"
"GENERATED VIA SPACETRACK.ORG API","18 SPCS","48899","SPACEBEE-110","PAYLOAD","U","21059W","2023-06-03 21:03:39","99168","15.31990413","0.0005838","97.5961","292.2368","311.8778","48.1964","0","999","10739","0.00089772","0.0002773","0","3924324","0 SPACEBEE-110","1 48899U 21059W   23154.87753587  .00027730  00000-0  89772-3 0  9995","2 48899  97.5961 292.2368 0005838 311.8778  48.1964 15.31990413107396","2021-059W","48899","6848.011","93.995","473.874","465.879","0"
"GENERATED VIA SPACETRACK.ORG API","18 SPCS","48899","SPACEBEE-110","PAYLOAD","U","21059W","2023-06-04 00:11:45","779136","15.31996897","0.0005832","97.5959","292.3712","311.4409","48.633","0","999","10741","0.00092366","0.00028543","0","3924583","0 SPACEBEE-110","1 48899U 21059W   23155.00816874  .00028543  00000-0  92366-3 0  9996","2 48899  97.5959 292.3712 0005832 311.4409  48.6330 15.31996897107415","2021-059W","48899","6847.992","93.995","473.851","465.863","0"
"GENERATED VIA SPACETRACK.ORG API","18 SPCS","48899","SPACEBEE-110","PAYLOAD","U","21059W","2023-06-04 14:18:15","196608","15.32026938","0.0005878","97.5962","292.9739","309.0944","50.9773","0","999","10750","0.0009096","0.00028132","0","3924842","0 SPACEBEE-110","1 48899U 21059W   23155.59600922  .00028132  00000-0  90960-3 0  9997","2 48899  97.5962 292.9739 0005878 309.0944  50.9773 15.32026938107509","2021-059W","48899","6847.903","93.993","473.793","465.742","0"
"GENERATED VIA SPACETRACK.ORG API","18 SPCS","48899","SPACEBEE-110","PAYLOAD","U","21059W","2023-06-04 20:34:27","918048","15.32042662","0.0005864","97.5963","293.2417","308.0584","52.0127","0","999","10754","0.00091411","0.00028286","0","3925173","0 SPACEBEE-110","1 48899U 21059W   23155.85726757  .00028286  00000-0  91411-3 0  9993","2 48899  97.5963 293.2417 0005864 308.0584  52.0127 15.32042662107543","2021-059W","48899","6847.856","93.992","473.736","465.705","0"
"GENERATED VIA SPACETRACK.ORG API","18 SPCS","48899","SPACEBEE-110","PAYLOAD","U","21059W","2023-06-05 02:50:40","397568","15.32057117","0.0005831","97.5963","293.5097","307.0811","52.9896","0","999","10758","0.00090934","0.0002815","0","3925431","0 SPACEBEE-110","1 48899U 21059W   23156.11852312  .00028150  00000-0  90934-3 0  9999","2 48899  97.5963 293.5097 0005831 307.0811  52.9896 15.32057117107583","2021-059W","48899","6847.813","93.991","473.671","465.685","0"
